{
  "norad_id": 64852,
  "name": "STARLINK-34564",
  "history": [
    {
      "epoch": "2026-03-28T20:54:46.066464Z",
      "apogee_km": 550.9172752053928,
      "perigee_km": 548.0655862381709,
      "latitude_deg": -2.9212127327577255e-05,
      "longitude_deg": 164.43456634042172,
      "height_km": 552.3585384142218,
      "semi_major_axis_km": 6927.628430721782,
      "eccentricity": 0.00020582,
      "inclination_deg": 97.6048,
      "raan_deg": 304.4121,
      "arg_perigee_deg": 82.1536,
      "mean_anomaly_deg": 277.9924,
      "mean_motion_rev_day": 15.0565643
    },
    {
      "epoch": "2026-03-29T03:17:34.194048Z",
      "apogee_km": 550.9549722550655,
      "perigee_km": 548.0633727426648,
      "latitude_deg": 6.372560134590546e-05,
      "longitude_deg": 68.73390367440129,
      "height_km": 552.3651255962039,
      "semi_major_axis_km": 6927.646172498865,
      "eccentricity": 0.0002087,
      "inclination_deg": 97.6048,
      "raan_deg": 304.674,
      "arg_perigee_deg": 81.8191,
      "mean_anomaly_deg": 278.3273,
      "mean_motion_rev_day": 15.05650646
    },
    {
      "epoch": "2026-03-30T01:37:22.125216Z",
      "apogee_km": 550.9681532168379,
      "perigee_km": 548.0017454981225,
      "latitude_deg": -4.445338897506894e-05,
      "longitude_deg": 93.78434562655322,
      "height_km": 552.3336938018585,
      "semi_major_axis_km": 6927.62194935748,
      "eccentricity": 0.0002141,
      "inclination_deg": 97.6045,
      "raan_deg": 305.5912,
      "arg_perigee_deg": 81.7478,
      "mean_anomaly_deg": 278.3991,
      "mean_motion_rev_day": 15.05658543
    }
  ]
}